{"fetched_at":"2026-07-07T18:29:14.088Z","source":"https://celestrak.org/NORAD/elements/gp.php?GROUP=stations&FORMAT=JSON","constellation":"iss","records":[{"OBJECT_NAME":"ISS (ZARYA)","OBJECT_ID":"1998-067A","EPOCH":"2026-07-07T12:12:01.986912","CLASSIFICATION_TYPE":"U","MEAN_MOTION":15.48933372,"ECCENTRICITY":0.0006687,"INCLINATION":51.6304,"RA_OF_ASC_NODE":199.5144,"ARG_OF_PERICENTER":267.6545,"MEAN_ANOMALY":92.3678,"EPHEMERIS_TYPE":0,"NORAD_CAT_ID":25544,"ELEMENT_SET_NO":999,"REV_AT_EPOCH":57490,"BSTAR":0.00011369,"MEAN_MOTION_DOT":0.00005806,"MEAN_MOTION_DDOT":0}]}
